OBJECT_NAME,OBJECT_ID,EPOCH,MEAN_MOTION,ECCENTRICITY,INCLINATION,RA_OF_ASC_NODE,ARG_OF_PERICENTER,MEAN_ANOMALY,EPHEMERIS_TYPE,CLASSIFICATION_TYPE,NORAD_CAT_ID,ELEMENT_SET_NO,REV_AT_EPOCH,BSTAR,MEAN_MOTION_DOT,MEAN_MOTION_DDOT
LKW-2,2017-084A,2026-06-05T21:11:31.410816,15.26185659,.00004,97.1195,197.2078,352.6263,7.4970,0,U,43080,999,46996,.27358E-3,.7006E-4,0
SUPERVIEW-1 03,2018-002A,2026-06-05T20:28:03.029376,15.38872598,.0046514,97.3129,241.7112,220.3689,139.4101,0,U,43099,999,46662,.51112E-3,.20346E-3,0
CARTOSAT-2F,2018-004A,2026-06-05T19:31:42.667392,15.19281547,.0000232,97.4791,216.5584,22.4539,337.6705,0,U,43111,999,46560,.14915E-3,.3078E-4,0
LKW-3,2018-006A,2026-06-05T20:13:06.020256,15.35020517,.0003035,97.6606,316.9766,11.1041,349.0268,0,U,43146,999,46697,.4554E-3,.15403E-3,0
ASNARO-2,2018-007A,2026-06-05T21:08:32.402112,15.22423842,.0001836,97.3977,163.9847,91.1134,269.0313,0,U,43152,999,46569,.47554E-3,.10932E-3,0
JILIN-1 07,2018-008E,2026-06-05T19:30:03.494880,15.34528802,.0010262,97.1775,177.0460,98.3856,261.8552,0,U,43159,999,46325,.34946E-3,.11636E-3,0
JILIN-1 08,2018-008F,2026-06-05T19:19:54.756768,15.33573559,.0007987,97.1807,176.3672,110.8804,249.3294,0,U,43160,999,46320,.2462E-3,.7922E-4,0
S-NET D,2018-014G,2026-06-05T10:53:36.233376,15.16557264,.0009843,97.5368,61.3183,65.5123,294.7136,0,U,43186,999,45698,.27103E-3,.5227E-4,0
S-NET B,2018-014H,2026-06-05T12:44:46.912128,15.16528735,.0010387,97.5375,61.3812,60.8420,299.3851,0,U,43187,999,45699,.29131E-3,.5619E-4,0
S-NET A,2018-014J,2026-06-04T17:26:56.757120,15.16558138,.00103873,97.5386,60.7888,63.5981,296.6317,0,U,43188,999,45687,.30203737E-3,.5834E-4,0
S-NET C,2018-014K,2026-06-05T06:30:13.185216,15.16516677,.0011517,97.5401,61.4022,55.3016,304.9300,0,U,43189,999,45550,.27841E-3,.5367E-4,0
PAZ,2018-020A,2026-06-05T20:14:41.149248,15.19155490,.0001635,97.4454,164.3907,86.4470,273.6952,0,U,43215,999,45928,.90019E-4,.1824E-4,0
GOES 17,2018-022A,2026-06-05T14:48:10.006272,1.00271340,.0000728,0.9078,85.9257,9.2393,291.4339,0,U,43226,999,3030,0,-.17E-5,0
LKW-4,2018-025A,2026-06-05T10:02:35.788128,15.61310917,.0001857,97.6347,326.3785,353.4739,6.6493,0,U,43236,999,45819,.46848E-3,.39797E-3,0
ZHUHAI-1 OVS-02,2018-040B,2026-06-05T19:32:02.235264,15.24866844,.0001862,97.0393,174.7193,325.3355,34.7762,0,U,43440,999,45098,.33606E-3,.8289E-4,0
ZHUHAI-1 OHS-02,2018-040C,2026-06-05T20:54:06.813216,15.25712071,.0007265,97.0376,181.7011,269.5485,90.4922,0,U,43441,999,11255,.36855E-3,.9337E-4,0
GAOFEN-6,2018-048A,2026-06-05T21:21:40.411584,14.76620682,.0011165,97.7758,219.9882,205.7296,154.3360,0,U,43484,999,43172,.15787E-3,.1055E-4,0
LUOJIA-1 01,2018-048B,2026-06-05T20:54:47.302848,14.87239556,.0009497,97.8102,235.2411,150.4554,209.7200,0,U,43485,999,43253,.13305E-3,.1145E-4,0
PAKTES 1A,2018-056A,2026-06-05T20:35:02.940288,14.99051657,.0022343,98.1301,312.8603,141.6970,218.5843,0,U,43529,999,43022,.28457E-3,.3405E-4,0
PRSS-1,2018-056B,2026-06-05T20:19:18.341184,14.81970487,.0001801,97.7820,225.0301,77.4096,282.7319,0,U,43530,999,42675,.99261E-4,.736E-5,0
HAIYANG-1C,2018-068A,2026-06-05T19:16:47.635104,14.34175974,.0011804,98.5190,229.2754,124.4982,235.7319,0,U,43609,999,40545,.11704E-3,.285E-5,0
SSTL S1-4,2018-071A,2026-06-05T20:27:51.399072,14.96174756,.0001066,97.5032,28.9380,107.4594,252.6744,0,U,43618,999,42124,.98493E-4,.1055E-4,0
HAIYANG-2B,2018-081A,2026-06-05T20:19:37.560000,13.79308911,.0000919,99.3285,165.7745,19.5398,340.5789,0,U,43655,999,38336,.12322E-3,.82E-6,0
CZ-4B R/B,2018-081B,2026-06-05T12:22:19.219008,14.31861804,.0203845,99.3684,73.5094,300.5554,57.5651,0,U,43656,999,39763,.66728E-4,.164E-5,0
CFOSAT,2018-083A,2026-06-03T21:29:46.381344,15.16374708,.0001972,97.3604,159.8194,97.2214,262.9244,0,U,43662,999,42042,.2145E-3,.4099E-4,0
TEN-KOH,2018-084G,2026-06-05T11:20:21.269760,15.02891117,.0010256,98.0779,348.3412,152.2333,207.9440,0,U,43677,999,41440,.22603E-3,.2969E-4,0
DIWATA-2B,2018-084H,2026-06-05T19:59:09.668256,15.00397499,.0011826,98.1156,352.5494,208.0097,152.0491,0,U,43678,999,41451,.24619E-3,.3032E-4,0
STARS-AO,2018-084J,2026-06-05T07:58:41.950272,15.16914940,.0002024,98.0514,9.5740,164.4689,195.6605,0,U,43679,999,41567,.32325E-3,.6298E-4,0
AUTCUBE 2,2018-084K,2026-06-05T12:02:21.295104,15.10009086,.0010484,98.0721,2.0567,84.0539,276.1884,0,U,43681,999,41516,.26306E-3,.4209E-4,0
METOP-C,2018-087A,2026-06-05T19:20:42.814176,14.21509114,.0001325,98.6648,216.6172,142.0075,218.1196,0,U,43689,999,39321,.77369E-4,.126E-5,0
ES'HAIL 2,2018-090A,2026-06-05T15:20:59.362080,1.00273110,.0001956,0.0169,6.1871,102.4053,41.5169,0,U,43700,999,2756,0,.157E-5,0
MOHAMMED VI-B,2018-095A,2026-06-05T20:44:23.107776,14.77102653,.0001181,97.9555,229.3448,87.5274,272.6071,0,U,43717,999,40651,.10136E-3,.665E-5,0
HYSIS,2018-096A,2026-06-05T20:13:59.685888,14.78672162,.000157,97.9839,223.6794,112.9657,247.1719,0,U,43719,999,40574,.17369E-3,.1221E-4,0
COSMOS 2530 (RODNIK-S 16),2018-097A,2026-06-05T20:46:29.060832,12.42881102,.0020559,82.5145,229.3062,63.3751,296.9432,0,U,43751,999,34088,.34737E-3,.58E-6,0
COSMOS 2531 (RODNIK-S 17),2018-097B,2026-06-05T21:18:57.875904,12.42912315,.0017941,82.5191,230.3469,81.6189,278.6923,0,U,43752,999,34090,-.5635E-3,-.68E-6,0
COSMOS 2532 (RODNIK-S 18),2018-097C,2026-06-05T20:03:43.708320,12.42909603,.0019339,82.5135,229.1704,83.5711,276.7570,0,U,43753,999,34086,.48685E-3,.78E-6,0
MINXSS-2,2018-099A,2026-06-05T15:20:28.615776,15.46106389,.0006038,97.4535,232.5923,305.5163,54.5522,0,U,43758,999,41234,.70951E-3,.34773E-3,0
SIRION PATHFINDER-2,2018-099B,2026-06-05T02:10:49.948032,15.14436976,.0008178,97.4254,205.4362,352.2997,7.8108,0,U,43759,999,41079,.30112E-3,.5474E-4,0
AISTECHSAT 2,2018-099L,2026-06-05T09:38:00.000096,15.15325756,.0004251,97.4298,204.6938,1.4873,358.6372,0,U,43768,999,41049,.31048E-3,.5787E-4,0
FOX-1CLIFF (AO-95),2018-099N,2026-06-05T01:58:43.175424,15.26442922,.0009283,97.4389,216.3757,40.1659,320.0264,0,U,43770,999,41137,.4228E-3,.10962E-3,0
2018-099Q,2018-099Q,2026-06-04T17:55:53.180256,15.83339282,.00062369,97.4159,236.1922,257.5904,102.4667,0,U,43772,999,41269,.14213537E-2,.317384E-2,0
RANGE-A,2018-099R,2026-06-05T08:13:00.300576,15.13281352,.0011035,97.3965,199.2683,36.5889,323.6094,0,U,43773,999,41070,.28854E-3,.5077E-4,0
SNUSAT-2,2018-099AA,2026-06-05T10:21:23.556960,15.21654849,.0009492,97.4061,209.9971,345.8710,14.2259,0,U,43782,999,41124,.3846E-3,.8637E-4,0
SNUGLITE,2018-099AC,2026-06-05T09:56:26.854080,15.26909524,.0002095,97.3870,210.8120,6.4712,353.6554,0,U,43784,999,41152,.42285E-3,.11108E-3,0
ITASAT,2018-099AE,2026-06-05T08:40:51.938400,15.18900130,.0013338,97.4030,208.1104,40.5492,319.6733,0,U,43786,999,41111,.3577E-3,.7415E-4,0
EAGLET-I,2018-099AJ,2026-06-05T09:53:27.763296,15.12847196,.0011853,97.4234,206.3930,34.2261,325.9732,0,U,43790,999,41055,.26859E-3,.4665E-4,0
ESEO,2018-099AL,2026-06-05T08:08:56.530752,15.04203258,.0012558,97.3968,194.2353,21.0449,339.1292,0,U,43792,999,41002,.95419E-4,.1269E-4,0
THEA,2018-099AQ,2026-06-04T16:25:24.333888,15.34576651,.0006274,97.4441,225.2585,338.4461,21.6517,0,U,43796,999,41077,.58082E-3,.19415E-3,0
ASTROCAST 0.1,2018-099AS,2026-06-05T19:52:54.338016,15.48767632,.0004243,97.4379,234.9776,247.3378,112.7424,0,U,43798,999,41267,.87133E-3,.46898E-3,0
JY1SAT (JO-97),2018-099AX,2026-06-05T02:08:09.513600,15.33253592,.0004294,97.4134,218.8851,322.9431,37.1514,0,U,43803,999,41177,.49499E-3,.15845E-3,0
SUOMI-100,2018-099AY,2026-06-05T10:05:54.634272,15.28141688,.0008764,97.4187,216.8601,328.6803,31.3913,0,U,43804,999,41162,.40909E-3,.11165E-3,0
CENTAURI-1,2018-099BD,2026-06-05T09:26:44.245824,15.16242190,.0014362,97.4221,208.3671,16.1687,344.0002,0,U,43809,999,41071,.27871E-3,.5337E-4,0
GLOBAL-2,2018-099BG,2026-06-05T08:02:19.682592,15.08596926,.000585,97.3555,193.3416,179.2710,180.8529,0,U,43812,999,41012,.19735E-3,.3026E-4,0
SEAHAWK-1,2018-099BQ,2026-06-04T17:11:22.602048,15.22595245,.0007901,97.3957,208.3933,5.2827,354.8491,0,U,43820,999,41063,.40096E-3,.9258E-4,0
SAUDISAT 5A,2018-102A,2026-06-05T20:03:02.086848,15.27927309,.0010122,97.3067,218.6358,165.0931,195.0609,0,U,43831,999,41394,.23487E-3,.6337E-4,0
SAUDISAT 5B,2018-102C,2026-06-05T20:32:56.994144,15.28190374,.0010754,97.3175,221.7053,167.6585,192.4920,0,U,43833,999,41406,.22616E-3,.615E-4,0
2018-102D,2018-102D,2026-06-05T20:19:02.430624,15.65733098,.0004134,97.3434,245.4909,118.4414,241.7263,0,U,43834,999,41547,.80224E-3,.81543E-3,0
ISAT,2018-111D,2026-06-05T07:51:49.074048,15.63146729,.0003044,97.5892,90.6556,48.0088,312.1428,0,U,43879,999,40931,.86421E-3,.79311E-3,0
UWE-4,2018-111E,2026-06-05T01:04:33.820032,15.45332944,.00078982,97.5859,83.8833,27.7618,332.4050,0,U,43880,999,40890,.73225046E-3,.34971E-3,0
D-STAR ONE (SPARROW),2018-111F,2026-06-05T13:14:15.667008,15.71094721,.0005153,97.6124,96.3156,98.1023,262.0824,0,U,43881,999,40954,.11034E-2,.140604E-2,0
JILIN-1 09,2019-005B,2026-06-05T19:04:18.915168,15.20412034,.0003645,97.4731,251.8558,117.2515,242.9092,0,U,43943,999,40741,.24776E-3,.5332E-4,0
JILIN-1 10,2019-005E,2026-06-05T18:43:10.276320,15.25596566,.0007052,97.4777,255.5860,327.7750,32.3056,0,U,43946,999,40757,.25265E-3,.6349E-4,0
EGYPTSAT-A (MISRSAT-A),2019-008A,2026-06-05T20:40:39.907200,14.72293059,.0001238,98.0081,221.7813,84.2341,275.9007,0,U,44047,999,39157,.21242E-3,.1293E-4,0
EMISAT,2019-018A,2026-06-05T20:19:59.236896,14.43681997,.0017266,98.4645,215.7090,251.0856,108.8462,0,U,44078,999,37842,.95006E-4,.279E-5,0
JILIN-1 GAOFEN 3A,2019-032C,2026-06-05T20:57:57.868416,15.32372723,.0006067,44.9747,59.1905,242.3919,117.6350,0,U,44312,999,38610,.39885E-3,.12427E-3,0
WT 1B,2019-032G,2026-06-05T19:36:44.826336,15.26956672,.0008967,44.9733,122.9913,189.9985,170.0720,0,U,44316,999,38534,.44742E-3,.11799E-3,0
PROX-1,2019-036A,2026-06-05T09:47:54.335328,14.90320876,.0005367,23.9935,192.9204,253.7841,106.2067,0,U,44339,999,37171,.10974E-2,.11221E-3,0
